ONEWEB-0201             
1 48241U 21031AH  21329.51186951  .00000255  00000+0  65220-3 0  9998
2 48241  87.8966 260.5832 0001753  72.3359 287.7962 13.14503582 29684
ONEWEB-0207             
1 48242U 21031AJ  21329.56261113  .00000196  00000+0  49351-3 0  9999
2 48242  87.8947 260.5816 0001371  79.8794 280.2490 13.14500252 29604
ONEWEB-0208             
1 48243U 21031AK  21329.53935288 -.00000175  00000+0 -50758-3 0  9990
2 48243  87.9016 260.5732 0002055  57.1856 302.9471 13.14498738 29615
ONEWEB-0200             
1 48244U 21031AL  21329.57953159  .00000172  00000+0  42975-3 0  9999
2 48244  87.9050 260.5429 0002050  54.5543 305.5778 13.14503383 29540
ONEWEB-0217             
1 48245U 21031AM  21329.36808159 -.00000056  00000+0 -18545-3 0  9995
2 48245  87.8947 260.6129 0002040  55.8663 304.2660 13.14504062 29461
ONEWEB-0211             
1 48767U 21045A   21329.83334491 -.00042277  00000+0 -11282+0 0  9992
2 48767  87.9165 230.1370 0002119  69.6622  43.9421 13.15567828  3282
ONEWEB-0223             
1 48768U 21045B   21329.83334491 -.00041361  00000+0 -11036+0 0  9993
2 48768  87.9075 230.1413 0002330  71.1878 302.5312 13.15571709  3294
ONEWEB-0230             
1 48769U 21045C   21329.83334491 -.00042430  00000+0 -11322+0 0  9990
2 48769  87.9116 230.0758 0002354  77.5657  66.1317 13.15573978  3280
ONEWEB-0237             
1 48770U 21045D   21329.83334491 -.00042386  00000+0 -11311+0 0  9990
2 48770  87.9104 229.9808 0002399  79.9439 113.6985 13.15570052  3295
ONEWEB-0235             
1 48771U 21045E   21329.83334491 -.00041535  00000+0 -11082+0 0  9991
2 48771  87.9124 229.9766 0002853  79.4394 244.2234 13.15574511  3282
ONEWEB-0242             
1 48772U 21045F   21329.83334491 -.00041351  00000+0 -11033+0 0  9994
2 48772  87.9091 230.1357 0002163  71.1534 282.5473 13.15572858  3287
ONEWEB-0241             
1 48773U 21045G   21329.83334491 -.00041625  00000+0 -11107+0 0  9991
2 48773  87.9057 230.1414 0002270  58.4917 355.2189 13.15570535  3301
ONEWEB-0243             
1 48774U 21045H   21329.83334491 -.00041940  00000+0 -11191+0 0  9995
2 48774  87.9130 230.0210 0002290  83.8498 179.8109 13.15572504  3282
ONEWEB-0222             
1 48775U 21045J   21329.83334491 -.00041558  00000+0 -11089+0 0  9997
2 48775  87.9120 230.0603 0002124  69.8338 243.7809 13.15569443  3287
ONEWEB-0244             
1 48776U 21045K   21329.83334491  .00000013  00000+0  00000+0 0  9998
2 48776  87.9189 230.1184 0003199  90.9376 310.0707 13.23231142  3307
ONEWEB-0247             
1 48777U 21045L   21329.70794167  .00000103  00000+0  24066-3 0  9997
2 48777  87.9080 230.1228 0002680  77.0297 283.1132 13.15550116 25569
ONEWEB-0245             
1 48778U 21045M   21329.83334491 -.00042013  00000+0 -11210+0 0  9993
2 48778  87.9132 229.9780 0001902  59.4757 194.1375 13.15576386  3280
ONEWEB-0229             
1 48779U 21045N   21329.83334491 -.00041809  00000+0 -11156+0 0  9995
2 48779  87.9128 229.9782 0002245  69.4879 214.1676 13.15572061  3288
ONEWEB-0228             
1 48780U 21045P   21329.83334491 -.00042241  00000+0 -11271+0 0  9996
2 48780  87.9105 230.0391 0001988  77.8718 135.8566 13.15576235  3286
ONEWEB-0232             
1 48781U 21045Q   21329.83334491 -.00042013  00000+0 -11210+0 0  9997
2 48781  87.9155 230.1326 0001994  60.1142 183.5283 13.15575594  3287
ONEWEB-0231             
1 48782U 21045R   21329.83334491 -.00041386  00000+0 -11043+0 0  9994
2 48782  87.9141 230.0996 0002331  77.4701 266.2471 13.15569944  3283
ONEWEB-0234             
1 48783U 21045S   21329.83334491 -.00042140  00000+0 -11244+0 0  9997
2 48783  87.9146 230.1058 0001650  64.2324 159.4213 13.15576368  3282
ONEWEB-0238             
1 48784U 21045T   21329.83334491 -.00042403  00000+0 -11315+0 0  9999
2 48784  87.9141 230.0692 0002354  80.7580  83.2592 13.15572806  3287
ONEWEB-0240             
1 48785U 21045U   21329.83334491 -.00041766  00000+0 -11145+0 0  9992
2 48785  87.9160 230.0943 0002405  58.8911   4.7540 13.15567592  3297
ONEWEB-0246             
1 48786U 21045V   21329.83334491 -.00041963  00000+0 -11198+0 0  9990
2 48786  87.9124 230.1287 0002270  77.9623   5.6554 13.15566865  3288
ONEWEB-0210             
1 48787U 21045W   21329.83334491 -.00042258  00000+0 -11276+0 0  9996
2 48787  87.9122 230.1248 0002558  92.4701 111.1926 13.15573803  3288
ONEWEB-0214             
1 48788U 21045X   21329.83334491 -.00042406  00000+0 -11316+0 0  9997
2 48788  87.9125 230.1276 0002483  99.6045  54.0327 13.15570942  3281
ONEWEB-0221             
1 48789U 21045Y   21329.83334491 -.00042318  00000+0 -11293+0 0  9994
2 48789  87.9142 230.1328 0002082  74.8649  48.7719 13.15568903  3288
ONEWEB-0213             
1 48790U 21045Z   21329.83334491 -.00042415  00000+0 -11318+0 0  9992
2 48790  87.9133 230.0155 0002302  77.5685 106.0205 13.15574265  3288
ONEWEB-0212             
1 48791U 21045AA  21329.83334491 -.00041857  00000+0 -11168+0 0  9995
2 48791  87.9132 230.0529 0001333  70.1584 203.5283 13.15577383  3286
ONEWEB-0227             
1 48792U 21045AB  21329.83334491 -.00041651  00000+0 -11113+0 0  9998
2 48792  87.9153 230.0016 0002005  65.6316 237.9975 13.15575173  3284
ONEWEB-0226             
1 48793U 21045AC  21329.83334491 -.00041469  00000+0 -11065+0 0  9992
2 48793  87.9124 230.0075 0002506  87.7394 245.9816 13.15570467  3289
ONEWEB-0224             
1 48794U 21045AD  21329.83334491 -.00042353  00000+0 -11302+0 0  9990
2 48794  87.9093 230.1383 0001467  53.8591  79.8636 13.15571157  3287
ONEWEB-0233             
1 48795U 21045AE  21329.83334491 -.00041663  00000+0 -11119+0 0  9990
2 48795  87.9124 229.9947 0001947  61.8661 347.0018 13.15558178  3298
ONEWEB-0190             
1 48796U 21045AF  21329.83334491 -.00042477  00000+0 -11335+0 0  9995
2 48796  87.9133 229.9754 0003175  76.8333  96.7658 13.15571059  3293
ONEWEB-0236             
1 48797U 21045AG  21329.83334491 -.00042062  00000+0 -11224+0 0  9993
2 48797  87.9159 230.1392 0001837  71.9358  21.8015 13.15570885  3281
ONEWEB-0248             
1 48798U 21045AH  21329.83334491 -.00041461  00000+0 -11063+0 0  9997
2 48798  87.9085 230.1473 0002777  59.1807 334.5436 13.15569842  3294
ONEWEB-0225             
1 48799U 21045AJ  21329.83334491 -.00041697  00000+0 -11126+0 0  9999
2 48799  87.9121 230.0846 0002589  69.1328 224.6101 13.15570855  3282
ONEWEB-0215             
1 48800U 21045AK  21329.83334491 -.00041709  00000+0 -11130+0 0  9991
2 48800  87.9127 230.1290 0002907  64.5820   9.0287 13.15566443  3283
ONEWEB-0216             
1 48801U 21045AL  21329.83334491 -.00041427  00000+0 -11054+0 0  9994
2 48801  87.9161 230.0723 0001859  89.3256 294.3274 13.15570404  3293
ONEWEB-0239             
1 48802U 21045AM  21329.83334491 -.00041371  00000+0 -11039+0 0  9996
2 48802  87.9111 230.0960 0002840  66.4898 297.1467 13.15569388  3295
ONEWEB-0249             
1 48967U 21060A   21329.83334491 -.00035252  00000+0 -92583-1 0  9991
2 48967  87.9152 199.8673 0001653  87.6871 100.1638 13.16607857  3289
ONEWEB-0250             
1 48968U 21060B   21329.83334491 -.00044627  00000+0 -11731+0 0  9992
2 48968  87.9133 199.8761 0001955  69.7810  96.3288 13.16611820  3288
ONEWEB-0251             
1 48969U 21060C   21329.83334491 -.00028296  00000+0 -87030-3 0  9996
2 48969  87.4243 185.8195 0012897  84.6702  88.9247 15.33793077  3610
ONEWEB-0252             
1 48970U 21060D   21329.83334491 -.00033975  00000+0 -89217-1 0  9995
2 48970  87.9140 199.9021 0001980  85.6245 309.5225 13.16609541  3294
ONEWEB-0253             
1 48971U 21060E   21329.83334491 -.00034353  00000+0 -90219-1 0  9991
2 48971  87.9147 199.9045 0002196  80.6583 358.1413 13.16604097  3298
ONEWEB-0254             
1 48972U 21060F   21329.83334491 -.00034003  00000+0 -89293-1 0  9994
2 48972  87.9149 199.8655 0002189  81.6029 324.4130 13.16607701  3292
ONEWEB-0255             
1 48973U 21060G   21329.83334491 -.00035218  00000+0 -92494-1 0  9991
2 48973  87.9182 199.9072 0002062  77.9902 142.6198 13.16608607  3281
ONEWEB-0256             
1 48974U 21060H   21329.83334491 -.00034607  00000+0 -90887-1 0  9997
2 48974  87.9145 199.9003 0001373  93.9762   6.6264 13.16605443  3290
ONEWEB-0257             
1 48975U 21060J   21329.83334491 -.00034497  00000+0 -90589-1 0  9994
2 48975  87.9163 199.9212 0001888  87.6492 220.2321 13.16612760  3281
ONEWEB-0258             
1 48976U 21060K   21329.83334491 -.00034605  00000+0 -90876-1 0  9995
2 48976  87.9171 199.9041 0001734  75.7889 221.1429 13.16609567  3289
ONEWEB-0259             
1 48977U 21060L   21329.83334491 -.00034342  00000+0 -90178-1 0  9999
2 48977  87.9154 199.8846 0002309  71.7941 246.9910 13.16614164  3286
ONEWEB-0260             
1 48978U 21060M   21329.83334491 -.00034049  00000+0 -89408-1 0  9998
2 48978  87.9156 199.9061 0001989 110.8431 240.6271 13.16613243  3289
ONEWEB-0261             
1 48979U 21060N   21329.83334491 -.00035166  00000+0 -92362-1 0  9993
2 48979  87.9154 199.8997 0002046  87.9089  67.2374 13.16604755  3288
ONEWEB-0262             
1 48980U 21060P   21329.83334491 -.00035018  00000+0 -91967-1 0  9991
2 48980  87.9151 199.8288 0002252  83.9236 158.4663 13.16608511  3287
ONEWEB-0263             
1 48981U 21060Q   21329.83334491 -.00034420  00000+0 -90389-1 0  9995
2 48981  87.9139 199.8105 0002523  76.0245  13.7061 13.16608815  3301
ONEWEB-0264             
1 48982U 21060R   21329.83334491 -.00038902  00000+0 -10220+0 0  9999
2 48982  87.9196 199.7369 0001817  78.8703 196.3300 13.16612208  3282
ONEWEB-0265             
1 48983U 21060S   21329.83334491 -.00020332  00000+0 -46668-3 0  9997
2 48983  87.3997 184.9021 0009446  75.2483 307.7097 15.42841101  3625
ONEWEB-0266             
1 48984U 21060T   21329.83334491 -.00035215  00000+0 -92484-1 0  9999
2 48984  87.9135 199.8487 0001509  76.0137 100.9555 13.16609882  3296
